[{"OBJECT_NAME":"GONETS-M 13","OBJECT_ID":"2015-020C","EPOCH":"2026-03-09T22:37:11.759808","MEAN_MOTION":12.42867615,"ECCENTRICITY":0.00136301,"INCLINATION":82.4801,"RA_OF_ASC_NODE":92.5793,"ARG_OF_PERICENTER":182.8748,"MEAN_ANOMALY":177.2255,"EPHEMERIS_TYPE":0,"CLASSIFICATION_TYPE":"U","NORAD_CAT_ID":40554,"ELEMENT_SET_NO":999,"REV_AT_EPOCH":49637,"BSTAR":0.0010222799,"MEAN_MOTION_DOT":1.51e-6,"MEAN_MOTION_DDOT":0},{"OBJECT_NAME":"DELTA 1 DEB","OBJECT_ID":"1976-077GJ","EPOCH":"2026-03-09T22:52:26.660640","MEAN_MOTION":12.45440986,"ECCENTRICITY":0.00272769,"INCLINATION":102.1648,"RA_OF_ASC_NODE":69.5031,"ARG_OF_PERICENTER":243.8886,"MEAN_ANOMALY":115.9373,"EPHEMERIS_TYPE":0,"CLASSIFICATION_TYPE":"U","NORAD_CAT_ID":40765,"ELEMENT_SET_NO":999,"REV_AT_EPOCH":55893,"BSTAR":0.0006072511,"MEAN_MOTION_DOT":4.1e-7,"MEAN_MOTION_DDOT":0}]
